GAOFEN-2                
1 40118U 14049A   26200.87872499  .00000578  00000+0  81575-4 0  9995
2 40118  98.0089 265.0522 0008557 121.8390 238.3657 14.80931491644076
GAOFEN-3                
1 41727U 16049A   26200.83036072 -.00000167  00000+0 -37431-4 0  9997
2 41727  98.4020 208.1242 0001783  83.3604 276.7789 14.42218296523351
GAOFEN-1 03             
1 43260U 18031B   26200.87436656  .00000291  00000+0  49259-4 0  9997
2 43260  98.0500 263.1617 0002034   1.3031 358.8183 14.76465969447516
GAOFEN-1 04             
1 43262U 18031D   26200.85010716 -.00000242  00000+0 -27474-4 0  9995
2 43262  98.0507 263.3325 0000960  50.8918 309.2376 14.76439420447508
GAOFEN-11 01            
1 43585U 18063A   26200.84807324  .00006594  00000+0  95718-4 0  9996
2 43585  97.1266 267.6517 0003685 181.7873 178.3370 15.56150751445423
GAOFEN-10R              
1 44622U 19066A   26200.87669223  .00000496  00000+0  67743-4 0  9992
2 44622  98.0511 154.6967 0006620  40.3499 319.8204 14.83062608367220
GAOFEN-12 01            
1 44819U 19082A   26200.85957119  .00000139  00000+0  24811-4 0  9993
2 44819  97.8112 206.3783 0000748  63.1057 297.0232 14.80481443358925
GAOFEN-12 02            
1 48079U 21026A   26200.87415041  .00000148  00000+0  26409-4 0  9996
2 48079  97.9938 198.9238 0006070 120.0723 240.1091 14.80317954286592
GAOFEN-12 03            
1 52912U 22069A   26200.84202134  .00000370  00000+0  55537-4 0  9990
2 52912  97.8230  87.8826 0002359  67.7788 292.3674 14.80079289219442
GAOFEN-12 04            
1 57654U 23123A   26200.86265536  .00000424  00000+0  63199-4 0  9990
2 57654  97.9097 118.3908 0003271  40.4439 319.7016 14.79779985157463
