{
 "generated_at": "2026-07-20T08:05:52Z",
 "sources": [
  {
   "name": "CelesTrak",
   "url": "https://celestrak.org/NORAD/elements/",
   "license": "frei verfügbar; Attribution. Ursprünglich USSPACECOM/Space-Track."
  },
  {
   "name": "GCAT (J. McDowell, planet4589.org)",
   "url": "https://planet4589.org/space/gcat/",
   "license": "CC-BY 4.0"
  }
 ],
 "satellites": [
  {
   "norad": 43260,
   "name": "GAOFEN-1 03",
   "intl": "2018-031B",
   "group": "resource",
   "gcat": {
    "class": "C",
    "category": "IMG",
    "owner": "CNSAS",
    "state": "CN"
   },
   "omm": {
    "OBJECT_NAME": "GAOFEN-1 03",
    "OBJECT_ID": "2018-031B",
    "EPOCH": "2026-07-19T20:59:05.270784",
    "MEAN_MOTION": 14.76465969,
    "ECCENTRICITY": 0.0002034,
    "INCLINATION": 98.05,
    "RA_OF_ASC_NODE": 263.1617,
    "ARG_OF_PERICENTER": 1.3031,
    "MEAN_ANOMALY": 358.8183,
    "EPHEMERIS_TYPE": 0,
    "CLASSIFICATION_TYPE": "U",
    "NORAD_CAT_ID": 43260,
    "ELEMENT_SET_NO": 999,
    "REV_AT_EPOCH": 44751,
    "BSTAR": 0.000049259,
    "MEAN_MOTION_DOT": 0.00000291,
    "MEAN_MOTION_DDOT": 0
   }
  },
  {
   "norad": 43262,
   "name": "GAOFEN-1 04",
   "intl": "2018-031D",
   "group": "resource",
   "gcat": {
    "class": "C",
    "category": "IMG",
    "owner": "CNSAS",
    "state": "CN"
   },
   "omm": {
    "OBJECT_NAME": "GAOFEN-1 04",
    "OBJECT_ID": "2018-031D",
    "EPOCH": "2026-07-19T20:24:09.258624",
    "MEAN_MOTION": 14.7643942,
    "ECCENTRICITY": 0.000096,
    "INCLINATION": 98.0507,
    "RA_OF_ASC_NODE": 263.3325,
    "ARG_OF_PERICENTER": 50.8918,
    "MEAN_ANOMALY": 309.2376,
    "EPHEMERIS_TYPE": 0,
    "CLASSIFICATION_TYPE": "U",
    "NORAD_CAT_ID": 43262,
    "ELEMENT_SET_NO": 999,
    "REV_AT_EPOCH": 44750,
    "BSTAR": -0.000027474,
    "MEAN_MOTION_DOT": -0.00000242,
    "MEAN_MOTION_DDOT": 0
   }
  },
  {
   "norad": 44622,
   "name": "GAOFEN-10R",
   "intl": "2019-066A",
   "group": "resource",
   "gcat": {
    "class": null,
    "category": null,
    "owner": null,
    "state": null
   },
   "omm": {
    "OBJECT_NAME": "GAOFEN-10R",
    "OBJECT_ID": "2019-066A",
    "EPOCH": "2026-07-19T21:02:26.208672",
    "MEAN_MOTION": 14.83062608,
    "ECCENTRICITY": 0.000662,
    "INCLINATION": 98.0511,
    "RA_OF_ASC_NODE": 154.6967,
    "ARG_OF_PERICENTER": 40.3499,
    "MEAN_ANOMALY": 319.8204,
    "EPHEMERIS_TYPE": 0,
    "CLASSIFICATION_TYPE": "U",
    "NORAD_CAT_ID": 44622,
    "ELEMENT_SET_NO": 999,
    "REV_AT_EPOCH": 36722,
    "BSTAR": 0.000067743,
    "MEAN_MOTION_DOT": 0.00000496,
    "MEAN_MOTION_DDOT": 0
   }
  },
  {
   "norad": 43585,
   "name": "GAOFEN-11 01",
   "intl": "2018-063A",
   "group": "resource",
   "gcat": {
    "class": null,
    "category": null,
    "owner": null,
    "state": null
   },
   "omm": {
    "OBJECT_NAME": "GAOFEN-11 01",
    "OBJECT_ID": "2018-063A",
    "EPOCH": "2026-07-19T20:21:13.527936",
    "MEAN_MOTION": 15.56150751,
    "ECCENTRICITY": 0.0003685,
    "INCLINATION": 97.1266,
    "RA_OF_ASC_NODE": 267.6517,
    "ARG_OF_PERICENTER": 181.7873,
    "MEAN_ANOMALY": 178.337,
    "EPHEMERIS_TYPE": 0,
    "CLASSIFICATION_TYPE": "U",
    "NORAD_CAT_ID": 43585,
    "ELEMENT_SET_NO": 999,
    "REV_AT_EPOCH": 44542,
    "BSTAR": 0.000095718,
    "MEAN_MOTION_DOT": 0.00006594,
    "MEAN_MOTION_DDOT": 0
   }
  },
  {
   "norad": 44819,
   "name": "GAOFEN-12 01",
   "intl": "2019-082A",
   "group": "resource",
   "gcat": {
    "class": null,
    "category": null,
    "owner": null,
    "state": null
   },
   "omm": {
    "OBJECT_NAME": "GAOFEN-12 01",
    "OBJECT_ID": "2019-082A",
    "EPOCH": "2026-07-19T20:37:46.950816",
    "MEAN_MOTION": 14.80481443,
    "ECCENTRICITY": 0.0000748,
    "INCLINATION": 97.8112,
    "RA_OF_ASC_NODE": 206.3783,
    "ARG_OF_PERICENTER": 63.1057,
    "MEAN_ANOMALY": 297.0232,
    "EPHEMERIS_TYPE": 0,
    "CLASSIFICATION_TYPE": "U",
    "NORAD_CAT_ID": 44819,
    "ELEMENT_SET_NO": 999,
    "REV_AT_EPOCH": 35892,
    "BSTAR": 0.000024811,
    "MEAN_MOTION_DOT": 0.00000139,
    "MEAN_MOTION_DDOT": 0
   }
  },
  {
   "norad": 48079,
   "name": "GAOFEN-12 02",
   "intl": "2021-026A",
   "group": "resource",
   "gcat": {
    "class": "D",
    "category": "IMG-R",
    "owner": "ZLZB",
    "state": "CN"
   },
   "omm": {
    "OBJECT_NAME": "GAOFEN-12 02",
    "OBJECT_ID": "2021-026A",
    "EPOCH": "2026-07-19T20:58:46.595424",
    "MEAN_MOTION": 14.80317954,
    "ECCENTRICITY": 0.000607,
    "INCLINATION": 97.9938,
    "RA_OF_ASC_NODE": 198.9238,
    "ARG_OF_PERICENTER": 120.0723,
    "MEAN_ANOMALY": 240.1091,
    "EPHEMERIS_TYPE": 0,
    "CLASSIFICATION_TYPE": "U",
    "NORAD_CAT_ID": 48079,
    "ELEMENT_SET_NO": 999,
    "REV_AT_EPOCH": 28659,
    "BSTAR": 0.000026409,
    "MEAN_MOTION_DOT": 0.00000148,
    "MEAN_MOTION_DDOT": 0
   }
  },
  {
   "norad": 52912,
   "name": "GAOFEN-12 03",
   "intl": "2022-069A",
   "group": "resource",
   "gcat": {
    "class": "D",
    "category": "IMG-R",
    "owner": "ZLZB",
    "state": "CN"
   },
   "omm": {
    "OBJECT_NAME": "GAOFEN-12 03",
    "OBJECT_ID": "2022-069A",
    "EPOCH": "2026-07-19T20:12:30.643776",
    "MEAN_MOTION": 14.80079289,
    "ECCENTRICITY": 0.0002359,
    "INCLINATION": 97.823,
    "RA_OF_ASC_NODE": 87.8826,
    "ARG_OF_PERICENTER": 67.7788,
    "MEAN_ANOMALY": 292.3674,
    "EPHEMERIS_TYPE": 0,
    "CLASSIFICATION_TYPE": "U",
    "NORAD_CAT_ID": 52912,
    "ELEMENT_SET_NO": 999,
    "REV_AT_EPOCH": 21944,
    "BSTAR": 0.000055537,
    "MEAN_MOTION_DOT": 0.0000037,
    "MEAN_MOTION_DDOT": 0
   }
  },
  {
   "norad": 57654,
   "name": "GAOFEN-12 04",
   "intl": "2023-123A",
   "group": "resource",
   "gcat": {
    "class": "D",
    "category": "IMG-R",
    "owner": "ZLZB",
    "state": "CN"
   },
   "omm": {
    "OBJECT_NAME": "GAOFEN-12 04",
    "OBJECT_ID": "2023-123A",
    "EPOCH": "2026-07-19T20:42:13.423104",
    "MEAN_MOTION": 14.79779985,
    "ECCENTRICITY": 0.0003271,
    "INCLINATION": 97.9097,
    "RA_OF_ASC_NODE": 118.3908,
    "ARG_OF_PERICENTER": 40.4439,
    "MEAN_ANOMALY": 319.7016,
    "EPHEMERIS_TYPE": 0,
    "CLASSIFICATION_TYPE": "U",
    "NORAD_CAT_ID": 57654,
    "ELEMENT_SET_NO": 999,
    "REV_AT_EPOCH": 15746,
    "BSTAR": 0.000063199,
    "MEAN_MOTION_DOT": 0.00000424,
    "MEAN_MOTION_DDOT": 0
   }
  },
  {
   "norad": 40118,
   "name": "GAOFEN-2",
   "intl": "2014-049A",
   "group": "resource",
   "gcat": {
    "class": "C",
    "category": "IMG",
    "owner": "CNSAS",
    "state": "CN"
   },
   "omm": {
    "OBJECT_NAME": "GAOFEN-2",
    "OBJECT_ID": "2014-049A",
    "EPOCH": "2026-07-19T21:05:21.839136",
    "MEAN_MOTION": 14.80931491,
    "ECCENTRICITY": 0.0008557,
    "INCLINATION": 98.0089,
    "RA_OF_ASC_NODE": 265.0522,
    "ARG_OF_PERICENTER": 121.839,
    "MEAN_ANOMALY": 238.3657,
    "EPHEMERIS_TYPE": 0,
    "CLASSIFICATION_TYPE": "U",
    "NORAD_CAT_ID": 40118,
    "ELEMENT_SET_NO": 999,
    "REV_AT_EPOCH": 64407,
    "BSTAR": 0.000081575,
    "MEAN_MOTION_DOT": 0.00000578,
    "MEAN_MOTION_DDOT": 0
   }
  },
  {
   "norad": 41727,
   "name": "GAOFEN-3",
   "intl": "2016-049A",
   "group": "resource",
   "gcat": {
    "class": "C",
    "category": "IMG-R",
    "owner": "GWHYZ",
    "state": "CN"
   },
   "omm": {
    "OBJECT_NAME": "GAOFEN-3",
    "OBJECT_ID": "2016-049A",
    "EPOCH": "2026-07-19T19:55:43.166208",
    "MEAN_MOTION": 14.42218296,
    "ECCENTRICITY": 0.0001783,
    "INCLINATION": 98.402,
    "RA_OF_ASC_NODE": 208.1242,
    "ARG_OF_PERICENTER": 83.3604,
    "MEAN_ANOMALY": 276.7789,
    "EPHEMERIS_TYPE": 0,
    "CLASSIFICATION_TYPE": "U",
    "NORAD_CAT_ID": 41727,
    "ELEMENT_SET_NO": 999,
    "REV_AT_EPOCH": 52335,
    "BSTAR": -0.000037431,
    "MEAN_MOTION_DOT": -0.00000167,
    "MEAN_MOTION_DDOT": 0
   }
  }
 ]
}
